OBJECT_NAME,OBJECT_ID,EPOCH,MEAN_MOTION,ECCENTRICITY,INCLINATION,RA_OF_ASC_NODE,ARG_OF_PERICENTER,MEAN_ANOMALY,EPHEMERIS_TYPE,CLASSIFICATION_TYPE,NORAD_CAT_ID,ELEMENT_SET_NO,REV_AT_EPOCH,BSTAR,MEAN_MOTION_DOT,MEAN_MOTION_DDOT
FLOCK 4BE-13,2024-149AW,2026-06-06T04:29:32.279424,15.41589695,.00027758,97.3715,241.4867,319.5936,40.5105,0,U,60512,999,10067,.46345335E-3,.19427E-3,0
FLOCK 4BE-27,2024-149AX,2026-06-06T11:58:35.830848,15.34260457,.00034317,97.3821,239.3467,4.8959,355.2317,0,U,60513,999,10050,.3810003E-3,.12566E-3,0
FLOCK 4BE-9,2024-149AY,2026-06-06T12:04:35.908896,15.40478438,.00020501,97.3788,241.6738,5.4023,354.7245,0,U,60514,999,10067,.49143304E-3,.19861E-3,0
FLOCK 4BE-6,2024-149BA,2026-06-06T04:45:56.879136,15.39279445,.00026218,97.3786,240.7456,359.0206,1.1034,0,U,60516,999,10058,.49811632E-3,.19354E-3,0
FLOCK 4BE-14,2024-149BB,2026-06-06T10:50:56.690592,15.40659908,.00033414,97.3693,241.1277,348.9578,11.1595,0,U,60517,999,10067,.535501E-3,.21787E-3,0
FLOCK 4BE-1,2024-149BC,2026-06-06T11:29:54.227904,15.42250412,.00031048,97.3776,242.3943,346.0211,14.0950,0,U,60518,999,10072,.53966928E-3,.23151E-3,0
FLOCK 4BE-28,2024-149BD,2026-06-06T12:13:19.003872,15.44533736,.00031715,97.3742,243.1159,341.1878,18.9253,0,U,60519,999,10079,.51456391E-3,.23835E-3,0
IPERDRONE.0,2024-149BE,2026-06-06T04:29:29.348736,15.65082325,.00025532,97.3790,249.8701,256.2183,103.8792,0,U,60520,999,10119,.94066085E-3,.93306E-3,0
TRANSPORTER-11 OBJECT BF,2024-149BF,2026-06-06T04:31:36.387840,15.80043635,.00046262,97.3768,252.3158,248.2283,111.8492,0,U,60521,999,10134,.13679068E-2,.260665E-2,0
CONNECTA IOT-2,2024-149BG,2026-06-06T11:27:09.845856,15.23885244,.0006589,97.3834,235.7858,17.5496,342.5968,0,U,60522,999,10026,.23966493E-3,.5718E-4,0
PTD-R (TYVAK-0127),2024-149BH,2026-06-06T13:42:35.166240,16.05457535,.0008062,97.3916,257.4567,269.4027,90.6331,0,U,60523,999,10173,.16721E-2,.11572E-1,.76335E-3
CONNECTA IOT-4,2024-149BJ,2026-06-06T11:59:27.927456,15.41759416,.00042921,97.3793,241.7467,336.5963,23.5088,0,U,60524,999,10068,.60305225E-3,.25472E-3,0
ORESAT0.5,2024-149BK,2026-06-06T11:53:38.029056,15.44679477,.0004309,97.3720,243.3361,323.7229,36.3726,0,U,60525,999,10082,.53131005E-3,.24742E-3,0
DEIMOS,2024-149BL,2026-06-06T10:58:16.404384,15.43840912,.00043535,97.3786,243.4427,333.2323,26.8700,0,U,60526,999,10079,.53422001E-3,.2418E-3,0
CUAVA-2,2024-149BM,2026-06-06T12:42:21.750624,15.35872997,.00058028,97.3722,239.0328,341.6786,18.4247,0,U,60527,999,10053,.44532549E-3,.15487E-3,0
ERNST,2024-149BN,2026-06-06T04:22:02.519904,15.38917144,.00051502,97.3803,240.8217,348.8484,11.2647,0,U,60528,999,10058,.48760942E-3,.18725E-3,0
TORO,2024-149BQ,2026-06-06T03:21:02.719584,14.96380406,.00014451,97.6775,232.0139,89.9632,270.1755,0,U,60530,999,9830,.22634485E-3,.2506E-4,0
HYPSO-2,2024-149BR,2026-06-06T10:50:40.377408,14.98748153,.00018688,97.6829,233.8705,54.4250,305.7147,0,U,60531,999,9844,.21728679E-3,.2557E-4,0
LEMU NGE,2024-149BS,2026-06-06T11:25:01.215264,14.94907699,.00024116,97.6835,232.6520,80.6530,279.4963,0,U,60532,999,9835,.26427853E-3,.2827E-4,0
LEMUR-2-STELLA,2024-149BT,2026-06-06T11:46:58.784160,15.11579016,.00020125,97.6731,239.9014,99.4545,260.6912,0,U,60533,999,9888,.93723788E-3,.15863E-3,0
SATELIOT_2,2024-149BU,2026-06-06T11:03:20.856384,14.96320728,.00016474,97.6820,232.6128,101.9880,258.1526,0,U,60534,999,9836,.18865647E-3,.2076E-4,0
NIGHTJAR,2024-149BV,2026-06-06T10:40:43.671360,14.98970899,.00025104,97.6866,234.3011,90.6621,269.4889,0,U,60535,999,14126,.29935453E-3,.3566E-4,0
LEMUR-2-MARHISYAM,2024-149BW,2026-06-06T04:51:39.830112,15.11031638,.00030945,97.6874,240.0497,137.6306,222.5163,0,U,60536,999,9882,.90038403E-3,.15006E-3,0
SATELIOT_4,2024-149BX,2026-06-06T03:20:45.009312,14.96626041,.0003315,97.6727,231.8321,84.1371,276.0228,0,U,60537,999,9832,.22123985E-3,.2464E-4,0
PICO-02A021,2024-149BY,2026-06-06T04:23:26.830752,15.03138149,.00057489,97.6721,236.1111,59.7060,300.4733,0,U,60538,999,9808,.50695698E-3,.679E-4,0
ICEYE-X43,2024-149BZ,2026-06-06T03:39:07.599456,14.99660196,.00079557,97.6739,234.2711,115.0956,245.1093,0,U,60539,999,9846,.42392887E-3,.5171E-4,0
HAWK-10A,2024-149CA,2026-06-06T11:18:43.539264,14.96476681,.00046698,97.6882,233.5669,105.0487,255.1252,0,U,60540,999,9838,.17259756E-3,.1902E-4,0
UMBRA-09,2024-149CB,2026-06-06T12:28:33.280032,15.17698055,.0000292,97.6958,244.5458,330.0947,30.0270,0,U,60541,999,9910,.85172E-3,.17125E-3,0
QPS-SAR-8 (AMATERU-IV),2024-149CC,2026-06-06T11:35:12.442560,15.04033326,.00047053,97.6668,236.7232,130.9091,229.2543,0,U,60542,999,9866,.50528742E-3,.693E-4,0
ARCTIC WEATHER SATELLITE,2024-149CD,2026-06-06T11:23:17.460960,14.89813761,.00033462,97.6801,228.2460,124.4206,235.7328,0,U,60543,999,9770,.11701725E-3,.1069E-4,0
